{"type":"FeatureCollection","features":[{"type":"Feature","geometry":{"type":"Point","coordinates":[139.21094003,34.33312172]},"properties":{"基準点種別":"電子基準点","点名":"式根島","基準点コード":"EL05139319602","点番号":"960597","成果状態":"正常"}},{"type":"Feature","geometry":{"type":"Point","coordinates":[139.25791211,34.37182542]},"properties":{"基準点種別":"電子基準点","点名":"新島","基準点コード":"EL05139424001","点番号":"93057","成果状態":"正常"}},{"type":"Feature","geometry":{"type":"Point","coordinates":[139.27093292,34.51963358]},"properties":{"基準点種別":"電子基準点","点名":"利島","基準点コード":"EL05139622103","点番号":"960596","成果状態":"正常"}},{"type":"Feature","geometry":{"type":"Point","coordinates":[138.21524822,34.60315414]},"properties":{"基準点種別":"電子基準点","点名":"御前崎Ａ","基準点コード":"EL05138712705","点番号":"091178","成果状態":"正常"}},{"type":"Feature","geometry":{"type":"Point","coordinates":[138.83841858,34.61000136]},"properties":{"基準点種別":"電子基準点","点名":"南伊豆２","基準点コード":"EL05138763701","点番号":"93086","成果状態":"正常"}},{"type":"Feature","geometry":{"type":"Point","coordinates":[138.15903894,34.63454122]},"properties":{"基準点種別":"電子基準点","点名":"浜岡２","基準点コード":"EL05138716202","点番号":"960625","成果状態":"正常"}},{"type":"Feature","geometry":{"type":"Point","coordinates":[138.12928722,34.64290358]},"properties":{"基準点種別":"電子基準点","点名":"浜岡１","基準点コード":"EL05138717002","点番号":"93094","成果状態":"正常"}},{"type":"Feature","geometry":{"type":"Point","coordinates":[138.98418172,34.66160494]},"properties":{"基準点種別":"電子基準点","点名":"下田Ａ","基準点コード":"EL05138779801","点番号":"191229","成果状態":"正常"}},{"type":"Feature","geometry":{"type":"Point","coordinates":[138.04652289,34.66641106]},"properties":{"基準点種別":"電子基準点","点名":"大東２","基準点コード":"EL05138709302","点番号":"960624","成果状態":"正常"}},{"type":"Feature","geometry":{"type":"Point","coordinates":[137.93743808,34.67042128]},"properties":{"基準点種別":"電子基準点","点名":"浅羽","基準点コード":"EL05237070401","点番号":"93095","成果状態":"正常"}},{"type":"Feature","geometry":{"type":"Point","coordinates":[137.82342247,34.67188347]},"properties":{"基準点種別":"電子基準点","点名":"竜洋","基準点コード":"EL05237060502","点番号":"93098","成果状態":"正常"}},{"type":"Feature","geometry":{"type":"Point","coordinates":[138.18296469,34.67775344]},"properties":{"基準点種別":"電子基準点","点名":"静岡相良２","基準点コード":"EL05238011401","点番号":"960623","成果状態":"正常"}},{"type":"Feature","geometry":{"type":"Point","coordinates":[138.09828894,34.679924]},"properties":{"基準点種別":"電子基準点","点名":"小笠","基準点コード":"EL05238001702","点番号":"960622","成果状態":"正常"}},{"type":"Feature","geometry":{"type":"Point","coordinates":[139.43321789,34.68678406]},"properties":{"基準点種別":"電子基準点","点名":"大島２","基準点コード":"EL05239032401","点番号":"93055","成果状態":"正常"}},{"type":"Feature","geometry":{"type":"Point","coordinates":[138.76279144,34.69025569]},"properties":{"基準点種別":"電子基準点","点名":"南伊豆１Ａ","基準点コード":"EL05238062101","点番号":"990838","成果状態":"正常"}},{"type":"Feature","geometry":{"type":"Point","coordinates":[138.05354228,34.71525269]},"properties":{"基準点種別":"電子基準点","点名":"大東１","基準点コード":"EL05238005402","点番号":"93093","成果状態":"正常"}},{"type":"Feature","geometry":{"type":"Point","coordinates":[138.87647328,34.71947517]},"properties":{"基準点種別":"電子基準点","点名":"下田２","基準点コード":"EL05238076002","点番号":"970814","成果状態":"正常"}},{"type":"Feature","geometry":{"type":"Point","coordinates":[139.35858778,34.73761178]},"properties":{"基準点種別":"電子基準点","点名":"大島４","基準点コード":"EL05239028803","点番号":"960595","成果状態":"正常"}},{"type":"Feature","geometry":{"type":"Point","coordinates":[138.22560414,34.73830931]},"properties":{"基準点種別":"電子基準点","点名":"榛原","基準点コード":"EL05238018801","点番号":"93092","成果状態":"正常"}},{"type":"Feature","geometry":{"type":"Point","coordinates":[138.98981719,34.75135078]},"properties":{"基準点種別":"電子基準点","点名":"河津","基準点コード":"EL05238170901","点番号":"93053","成果状態":"正常"}},{"type":"Feature","geometry":{"type":"Point","coordinates":[138.03796692,34.75272783]},"properties":{"基準点種別":"電子基準点","点名":"Ｈ下板沢","基準点コード":"EL05238100303","点番号":"98H023","成果状態":"正常"}},{"type":"Feature","geometry":{"type":"Point","coordinates":[137.91127661,34.75539469]},"properties":{"基準点種別":"電子基準点","点名":"袋井","基準点コード":"EL05237170201","点番号":"93096","成果状態":"正常"}},{"type":"Feature","geometry":{"type":"Point","coordinates":[138.13691553,34.75775778]},"properties":{"基準点種別":"電子基準点","点名":"静岡相良１","基準点コード":"EL05238110002","点番号":"93091","成果状態":"正常"}},{"type":"Feature","geometry":{"type":"Point","coordinates":[139.43401733,34.76154133]},"properties":{"基準点種別":"電子基準点","点名":"大島３","基準点コード":"EL05239131401","点番号":"960594","成果状態":"正常"}},{"type":"Feature","geometry":{"type":"Point","coordinates":[138.78606372,34.77607633]},"properties":{"基準点種別":"電子基準点","点名":"西伊豆","基準点コード":"EL05238163201","点番号":"93085","成果状態":"正常"}},{"type":"Feature","geometry":{"type":"Point","coordinates":[138.02325269,34.77978144]},"properties":{"基準点種別":"電子基準点","点名":"掛川Ａ","基準点コード":"EL05238103102","点番号":"161216","成果状態":"正常"}},{"type":"Feature","geometry":{"type":"Point","coordinates":[139.38139517,34.78441622]},"properties":{"基準点種別":"電子基準点","点名":"大島１","基準点コード":"EL05239134003","点番号":"93051","成果状態":"正常"}},{"type":"Feature","geometry":{"type":"Point","coordinates":[138.76420281,34.80689942]},"properties":{"基準点種別":"電子基準点","点名":"Ｐ田子","基準点コード":"EL05238166102","点番号":"02P114","成果状態":"正常"}},{"type":"Feature","geometry":{"type":"Point","coordinates":[138.33121831,34.83616678]},"properties":{"基準点種別":"電子基準点","点名":"焼津Ａ","基準点コード":"EL05238220601","点番号":"990840","成果状態":"正常"}},{"type":"Feature","geometry":{"type":"Point","coordinates":[137.93214664,34.84385856]},"properties":{"基準点種別":"電子基準点","点名":"静岡森","基準点コード":"EL05237271402","点番号":"93089","成果状態":"正常"}},{"type":"Feature","geometry":{"type":"Point","coordinates":[138.17674486,34.84941458]},"properties":{"基準点種別":"電子基準点","点名":"島田","基準点コード":"EL05238211401","点番号":"970820","成果状態":"正常"}},{"type":"Feature","geometry":{"type":"Point","coordinates":[138.77652461,34.85503472]},"properties":{"基準点種別":"電子基準点","点名":"賀茂","基準点コード":"EL05238262201","点番号":"960620","成果状態":"正常"}},{"type":"Feature","geometry":{"type":"Point","coordinates":[138.92225511,34.86559036]},"properties":{"基準点種別":"電子基準点","点名":"天城湯ヶ島２","基準点コード":"EL05238273302","点番号":"950297","成果状態":"正常"}},{"type":"Feature","geometry":{"type":"Point","coordinates":[138.327414,34.87067086]},"properties":{"基準点種別":"電子基準点","点名":"Ｐ焼津","基準点コード":"EL05238224601","点番号":"02P115","成果状態":"正常"}},{"type":"Feature","geometry":{"type":"Point","coordinates":[138.01692633,34.87671728]},"properties":{"基準点種別":"電子基準点","点名":"Ｓ掛川","基準点コード":"EL05238205101","点番号":"02S043","成果状態":"正常"}},{"type":"Feature","geometry":{"type":"Point","coordinates":[137.82258444,34.87709503]},"properties":{"基準点種別":"電子基準点","点名":"Ｓ天竜","基準点コード":"EL05237265501","点番号":"03S045","成果状態":"正常"}},{"type":"Feature","geometry":{"type":"Point","coordinates":[139.12436497,34.87847614]},"properties":{"基準点種別":"電子基準点","点名":"伊東八幡野","基準点コード":"EL05239205902","点番号":"93062","成果状態":"正常"}},{"type":"Feature","geometry":{"type":"Point","coordinates":[137.94680989,34.90205211]},"properties":{"基準点種別":"電子基準点","点名":"静岡森２","基準点コード":"EL05237278502","点番号":"970819","成果状態":"正常"}},{"type":"Feature","geometry":{"type":"Point","coordinates":[138.9248245,34.91611647]},"properties":{"基準点種別":"電子基準点","点名":"天城湯ヶ島１","基準点コード":"EL05238279301","点番号":"93049","成果状態":"正常"}},{"type":"Feature","geometry":{"type":"Point","coordinates":[139.82491931,34.91879153]},"properties":{"基準点種別":"電子基準点","点名":"Ｐ布良","基準点コード":"EL05239360501","点番号":"02P206","成果状態":"正常"}},{"type":"Feature","geometry":{"type":"Point","coordinates":[139.02011656,34.92273917]},"properties":{"基準点種別":"電子基準点","点名":"中伊豆Ａ","基準点コード":"EL05239300104","点番号":"131194","成果状態":"正常"}},{"type":"Feature","geometry":{"type":"Point","coordinates":[137.8179395,34.94134611]},"properties":{"基準点種別":"電子基準点","点名":"天竜","基準点コード":"EL05237362501","点番号":"93090","成果状態":"正常"}},{"type":"Feature","geometry":{"type":"Point","coordinates":[138.087009,34.94371217]},"properties":{"基準点種別":"電子基準点","点名":"川根Ａ","基準点コード":"EL05238303602","点番号":"141209","成果状態":"正常"}},{"type":"Feature","geometry":{"type":"Point","coordinates":[139.06990436,34.94975839]},"properties":{"基準点種別":"電子基準点","点名":"冷川峠Ａ","基準点コード":"EL05239303501","点番号":"000841","成果状態":"成果不良点"}},{"type":"Feature","geometry":{"type":"Point","coordinates":[139.86407947,34.95408417]},"properties":{"基準点種別":"電子基準点","点名":"館山","基準点コード":"EL05239364901","点番号":"93047","成果状態":"正常"}},{"type":"Feature","geometry":{"type":"Point","coordinates":[138.24989903,34.95434783]},"properties":{"基準点種別":"電子基準点","点名":"岡部Ａ","基準点コード":"EL05238314901","点番号":"000842","成果状態":"正常"}},{"type":"Feature","geometry":{"type":"Point","coordinates":[139.09928094,34.96744081]},"properties":{"基準点種別":"電子基準点","点名":"伊東Ａ","基準点コード":"EL05239306701","点番号":"101183","成果状態":"正常"}},{"type":"Feature","geometry":{"type":"Point","coordinates":[138.79465836,34.97056825]},"properties":{"基準点種別":"電子基準点","点名":"戸田Ｂ","基準点コード":"EL05238366302","点番号":"051144","成果状態":"正常"}},{"type":"Feature","geometry":{"type":"Point","coordinates":[138.51567808,34.98649708]},"properties":{"基準点種別":"電子基準点","点名":"静岡清水市２","基準点コード":"EL05238348102","点番号":"950296","成果状態":"正常"}},{"type":"Feature","geometry":{"type":"Point","coordinates":[138.37829586,34.99052619]},"properties":{"基準点種別":"電子基準点","点名":"静岡３","基準点コード":"EL05238338001","点番号":"93081","成果状態":"正常"}},{"type":"Feature","geometry":{"type":"Point","coordinates":[139.97488983,35.00279172]},"properties":{"基準点種別":"電子基準点","点名":"丸山","基準点コード":"EL05239470702","点番号":"950227","成果状態":"正常"}},{"type":"Feature","geometry":{"type":"Point","coordinates":[139.08059983,35.00707386]},"properties":{"基準点種別":"電子基準点","点名":"宇佐美Ａ","基準点コード":"EL05239400603","点番号":"221248","成果状態":"正常"}},{"type":"Feature","geometry":{"type":"Point","coordinates":[138.99792731,35.01482869]},"properties":{"基準点種別":"電子基準点","点名":"大仁","基準点コード":"EL05238471902","点番号":"93046","成果状態":"正常"}},{"type":"Feature","geometry":{"type":"Point","coordinates":[137.980415,35.03151933]},"properties":{"基準点種別":"電子基準点","点名":"春野","基準点コード":"EL05237473802","点番号":"950295","成果状態":"正常"}},{"type":"Feature","geometry":{"type":"Point","coordinates":[139.17103447,35.04062711]},"properties":{"基準点種別":"電子基準点","点名":"初島","基準点コード":"EL05239414303","点番号":"95105","成果状態":"正常"}},{"type":"Feature","geometry":{"type":"Point","coordinates":[138.08168378,35.04488494]},"properties":{"基準点種別":"電子基準点","点名":"中川根","基準点コード":"EL05238405602","点番号":"970818","成果状態":"正常"}},{"type":"Feature","geometry":{"type":"Point","coordinates":[138.90689406,35.04724456]},"properties":{"基準点種別":"電子基準点","点名":"沼津","基準点コード":"EL05238475202","点番号":"960626","成果状態":"正常"}},{"type":"Feature","geometry":{"type":"Point","coordinates":[138.20998319,35.06697536]},"properties":{"基準点種別":"電子基準点","点名":"静岡峰山","基準点コード":"EL05238418601","点番号":"970817","成果状態":"正常"}},{"type":"Feature","geometry":{"type":"Point","coordinates":[138.52470956,35.06740861]},"properties":{"基準点種別":"電子基準点","点名":"静岡清水市１","基準点コード":"EL05238448101","点番号":"93077","成果状態":"正常"}},{"type":"Feature","geometry":{"type":"Point","coordinates":[138.13490044,35.103913]},"properties":{"基準点種別":"電子基準点","点名":"本川根","基準点コード":"EL05238512001","点番号":"93079","成果状態":"正常"}},{"type":"Feature","geometry":{"type":"Point","coordinates":[138.90185947,35.11001722]},"properties":{"基準点種別":"電子基準点","点名":"静岡清水町","基準点コード":"EL05238573202","点番号":"93043","成果状態":"正常"}},{"type":"Feature","geometry":{"type":"Point","coordinates":[140.07926906,35.111861]},"properties":{"基準点種別":"電子基準点","点名":"鴨川","基準点コード":"EL05240503601","点番号":"93044","成果状態":"正常"}},{"type":"Feature","geometry":{"type":"Point","coordinates":[138.97386833,35.11416814]},"properties":{"基準点種別":"電子基準点","点名":"函南","基準点コード":"EL05238573701","点番号":"970813","成果状態":"正常"}},{"type":"Feature","geometry":{"type":"Point","coordinates":[138.60997436,35.11715367]},"properties":{"基準点種別":"電子基準点","点名":"蒲原","基準点コード":"EL05238544801","点番号":"970815","成果状態":"正常"}},{"type":"Feature","geometry":{"type":"Point","coordinates":[140.24945489,35.12938328]},"properties":{"基準点種別":"電子基準点","点名":"Ｐ勝浦","基準点コード":"EL05240515901","点番号":"02P107","成果状態":"正常"}},{"type":"Feature","geometry":{"type":"Point","coordinates":[139.84356983,35.14370969]},"properties":{"基準点種別":"電子基準点","点名":"鋸南","基準点コード":"EL05239567702","点番号":"93039","成果状態":"正常"}},{"type":"Feature","geometry":{"type":"Point","coordinates":[139.96847108,35.14380306]},"properties":{"基準点種別":"電子基準点","点名":"鴨川２","基準点コード":"EL05239577702","点番号":"020959","成果状態":"正常"}},{"type":"Feature","geometry":{"type":"Point","coordinates":[139.11052394,35.14958211]},"properties":{"基準点種別":"電子基準点","点名":"湯河原Ａ","基準点コード":"EL05239507803","点番号":"161217","成果状態":"正常"}},{"type":"Feature","geometry":{"type":"Point","coordinates":[137.86876161,35.16045239]},"properties":{"基準点種別":"電子基準点","点名":"水窪Ａ","基準点コード":"EL05237569902","点番号":"020847","成果状態":"正常"}},{"type":"Feature","geometry":{"type":"Point","coordinates":[139.61384394,35.16086703]},"properties":{"基準点種別":"電子基準点","点名":"三浦２","基準点コード":"EL05239549902","点番号":"960759","成果状態":"正常"}},{"type":"Feature","geometry":{"type":"Point","coordinates":[140.26802308,35.16590094]},"properties":{"基準点種別":"電子基準点","点名":"勝浦","基準点コード":"EL05240529102","点番号":"93041","成果状態":"正常"}},{"type":"Feature","geometry":{"type":"Point","coordinates":[138.72154208,35.17359139]},"properties":{"基準点種別":"電子基準点","点名":"富士","基準点コード":"EL05238650701","点番号":"93076","成果状態":"正常"}},{"type":"Feature","geometry":{"type":"Point","coordinates":[138.25351369,35.20097978]},"properties":{"基準点種別":"電子基準点","点名":"静岡１","基準点コード":"EL05238624001","点番号":"93074","成果状態":"正常"}},{"type":"Feature","geometry":{"type":"Point","coordinates":[138.61698772,35.20318453]},"properties":{"基準点種別":"電子基準点","点名":"富士宮２","基準点コード":"EL05238644902","点番号":"93075","成果状態":"正常"}},{"type":"Feature","geometry":{"type":"Point","coordinates":[138.92835533,35.20439594]},"properties":{"基準点種別":"電子基準点","点名":"裾野２","基準点コード":"EL05238674402","点番号":"960621","成果状態":"正常"}},{"type":"Feature","geometry":{"type":"Point","coordinates":[140.38490942,35.24324331]},"properties":{"基準点種別":"電子基準点","点名":"千葉大原","基準点コード":"EL05240639001","点番号":"950226","成果状態":"正常"}},{"type":"Feature","geometry":{"type":"Point","coordinates":[139.04933994,35.24551628]},"properties":{"基準点種別":"電子基準点","点名":"箱根","基準点コード":"EL05239609302","点番号":"93068","成果状態":"正常"}},{"type":"Feature","geometry":{"type":"Point","coordinates":[139.95434353,35.25480836]},"properties":{"基準点種別":"電子基準点","点名":"鹿野山","基準点コード":"EL05239770603","点番号":"93045","成果状態":"正常"}},{"type":"Feature","geometry":{"type":"Point","coordinates":[139.66483872,35.26709419]},"properties":{"基準点種別":"電子基準点","点名":"横須賀","基準点コード":"EL05239752301","点番号":"93067","成果状態":"正常"}},{"type":"Feature","geometry":{"type":"Point","coordinates":[139.14241633,35.26860008]},"properties":{"基準点種別":"電子基準点","点名":"小田原","基準点コード":"EL05239712101","点番号":"950230","成果状態":"正常"}},{"type":"Feature","geometry":{"type":"Point","coordinates":[138.62767903,35.27065603]},"properties":{"基準点種別":"電子基準点","点名":"Ｓ富士宮１","基準点コード":"EL05238752001","点番号":"96S006","成果状態":"正常"}},{"type":"Feature","geometry":{"type":"Point","coordinates":[140.24892119,35.28901069]},"properties":{"基準点種別":"電子基準点","点名":"大多喜Ａ","基準点コード":"EL05240714903","点番号":"181224","成果状態":"正常"}},{"type":"Feature","geometry":{"type":"Point","coordinates":[138.44569917,35.28946242]},"properties":{"基準点種別":"電子基準点","点名":"南部","基準点コード":"EL05238734501","点番号":"93073","成果状態":"正常"}},{"type":"Feature","geometry":{"type":"Point","coordinates":[139.26269639,35.30489986]},"properties":{"基準点種別":"電子基準点","点名":"二宮","基準点コード":"EL05239726103","点番号":"93035","成果状態":"正常"}},{"type":"Feature","geometry":{"type":"Point","coordinates":[138.77067472,35.30554047]},"properties":{"基準点種別":"電子基準点","点名":"裾野１","基準点コード":"EL05238766101","点番号":"93072","成果状態":"正常"}},{"type":"Feature","geometry":{"type":"Point","coordinates":[139.82552167,35.3117025]},"properties":{"基準点種別":"電子基準点","点名":"富津","基準点コード":"EL05239767601","点番号":"93036","成果状態":"正常"}},{"type":"Feature","geometry":{"type":"Point","coordinates":[137.92527172,35.31714525]},"properties":{"基準点種別":"電子基準点","点名":"南信濃","基準点コード":"EL05237778402","点番号":"950277","成果状態":"正常"}},{"type":"Feature","geometry":{"type":"Point","coordinates":[138.588633,35.31968781]},"properties":{"基準点種別":"電子基準点","点名":"Ｓ富士宮２","基準点コード":"EL05238748702","点番号":"96S007","成果状態":"正常"}},{"type":"Feature","geometry":{"type":"Point","coordinates":[138.88165061,35.32160486]},"properties":{"基準点種別":"電子基準点","点名":"御殿場","基準点コード":"EL05238778002","点番号":"93038","成果状態":"正常"}},{"type":"Feature","geometry":{"type":"Point","coordinates":[138.18578342,35.32207617]},"properties":{"基準点種別":"電子基準点","点名":"静岡畑薙Ａ","基準点コード":"EL05238718402","点番号":"031102","成果状態":"正常"}},{"type":"Feature","geometry":{"type":"Point","coordinates":[139.46607056,35.32668175]},"properties":{"基準点種別":"電子基準点","点名":"藤沢","基準点コード":"EL05239739702","点番号":"93034","成果状態":"正常"}},{"type":"Feature","geometry":{"type":"Point","coordinates":[140.14679375,35.33313972]},"properties":{"基準点種別":"電子基準点","点名":"市原２","基準点コード":"EL05240719101","点番号":"93037","成果状態":"正常"}},{"type":"Feature","geometry":{"type":"Point","coordinates":[139.16260294,35.33620861]},"properties":{"基準点種別":"電子基準点","点名":"大井","基準点コード":"EL05339010302","点番号":"950229","成果状態":"正常"}},{"type":"Feature","geometry":{"type":"Point","coordinates":[138.7273035,35.36077131]},"properties":{"基準点種別":"電子基準点","点名":"富士山","基準点コード":"EL05338053801","点番号":"021100","成果状態":"正常"}},{"type":"Feature","geometry":{"type":"Point","coordinates":[138.56343464,35.36207908]},"properties":{"基準点種別":"電子基準点","点名":"富士宮１","基準点コード":"EL05338043502","点番号":"93071","成果状態":"正常"}},{"type":"Feature","geometry":{"type":"Point","coordinates":[139.36201961,35.37690283]},"properties":{"基準点種別":"電子基準点","点名":"平塚Ａ","基準点コード":"EL05339025802","点番号":"171223","成果状態":"正常"}},{"type":"Feature","geometry":{"type":"Point","coordinates":[139.66260156,35.41421783]},"properties":{"基準点種別":"電子基準点","点名":"横浜Ａ","基準点コード":"EL05339059302","点番号":"221250","成果状態":"正常"}},{"type":"Feature","geometry":{"type":"Point","coordinates":[139.04518136,35.41535122]},"properties":{"基準点種別":"電子基準点","点名":"山北","基準点コード":"EL05339009302","点番号":"93031","成果状態":"正常"}},{"type":"Feature","geometry":{"type":"Point","coordinates":[139.52192547,35.41926897]},"properties":{"基準点種別":"電子基準点","点名":"横浜泉","基準点コード":"EL05339140101","点番号":"970804","成果状態":"正常"}},{"type":"Feature","geometry":{"type":"Point","coordinates":[140.33737397,35.4211265]},"properties":{"基準点種別":"電子基準点","点名":"長生","基準点コード":"EL05340120602","点番号":"93033","成果状態":"正常"}},{"type":"Feature","geometry":{"type":"Point","coordinates":[139.20486881,35.428519]},"properties":{"基準点種別":"電子基準点","点名":"秦野","基準点コード":"EL05339111601","点番号":"93066","成果状態":"正常"}},{"type":"Feature","geometry":{"type":"Point","coordinates":[138.44524731,35.44358072]},"properties":{"基準点種別":"電子基準点","点名":"中富","基準点コード":"EL05338133502","点番号":"93069","成果状態":"正常"}},{"type":"Feature","geometry":{"type":"Point","coordinates":[140.05133497,35.44778381]},"properties":{"基準点種別":"電子基準点","点名":"市原１","基準点コード":"EL05340103402","点番号":"93030","成果状態":"正常"}},{"type":"Feature","geometry":{"type":"Point","coordinates":[138.60686881,35.46769314]},"properties":{"基準点種別":"電子基準点","点名":"上九一色","基準点コード":"EL05338146802","点番号":"020981","成果状態":"正常"}},{"type":"Feature","geometry":{"type":"Point","coordinates":[139.32257908,35.48264153]},"properties":{"基準点種別":"電子基準点","点名":"厚木","基準点コード":"EL05339127501","点番号":"93029","成果状態":"正常"}},{"type":"Feature","geometry":{"type":"Point","coordinates":[138.81403767,35.49659014]},"properties":{"基準点種別":"電子基準点","点名":"富士吉田","基準点コード":"EL05338169502","点番号":"93070","成果状態":"正常"}},{"type":"Feature","geometry":{"type":"Point","coordinates":[139.02577756,35.51186872]},"properties":{"基準点種別":"電子基準点","点名":"道志","基準点コード":"EL05339201201","点番号":"960607","成果状態":"正常"}},{"type":"Feature","geometry":{"type":"Point","coordinates":[137.81523756,35.521093]},"properties":{"基準点種別":"電子基準点","点名":"飯田","基準点コード":"EL05337262501","点番号":"950276","成果状態":"正常"}},{"type":"Feature","geometry":{"type":"Point","coordinates":[139.46784397,35.52140933]},"properties":{"基準点種別":"電子基準点","点名":"町田","基準点コード":"EL05339232701","点番号":"93028","成果状態":"正常"}},{"type":"Feature","geometry":{"type":"Point","coordinates":[140.31824022,35.53011575]},"properties":{"基準点種別":"電子基準点","点名":"大網白里","基準点コード":"EL05340223501","点番号":"93027","成果状態":"正常"}},{"type":"Feature","geometry":{"type":"Point","coordinates":[140.18656728,35.54414428]},"properties":{"基準点種別":"電子基準点","点名":"千葉緑","基準点コード":"EL05340215401","点番号":"93025","成果状態":"正常"}},{"type":"Feature","geometry":{"type":"Point","coordinates":[138.03831769,35.55613075]},"properties":{"基準点種別":"電子基準点","点名":"大鹿","基準点コード":"EL05338206302","点番号":"950275","成果状態":"正常"}},{"type":"Feature","geometry":{"type":"Point","coordinates":[139.67335597,35.56340319]},"properties":{"基準点種別":"電子基準点","点名":"神奈川川崎","基準点コード":"EL05339257303","点番号":"93026","成果状態":"正常"}},{"type":"Feature","geometry":{"type":"Point","coordinates":[138.58329892,35.59033647]},"properties":{"基準点種別":"電子基準点","点名":"中道","基準点コード":"EL05338340601","点番号":"940048","成果状態":"正常"}},{"type":"Feature","geometry":{"type":"Point","coordinates":[139.15722767,35.61027431]},"properties":{"基準点種別":"電子基準点","点名":"藤野","基準点コード":"EL05339313201","点番号":"93065","成果状態":"正常"}},{"type":"Feature","geometry":{"type":"Point","coordinates":[139.36989972,35.6164285]},"properties":{"基準点種別":"電子基準点","点名":"八王子","基準点コード":"EL05339323902","点番号":"960758","成果状態":"正常"}},{"type":"Feature","geometry":{"type":"Point","coordinates":[138.97585625,35.62334972]},"properties":{"基準点種別":"電子基準点","点名":"山梨大月","基準点コード":"EL05338374802","点番号":"93064","成果状態":"正常"}},{"type":"Feature","geometry":{"type":"Point","coordinates":[140.44830642,35.64235314]},"properties":{"基準点種別":"電子基準点","点名":"千葉松尾","基準点コード":"EL05340337502","点番号":"93024","成果状態":"正常"}},{"type":"Feature","geometry":{"type":"Point","coordinates":[138.69038247,35.64951911]},"properties":{"基準点種別":"電子基準点","点名":"山梨一宮","基準点コード":"EL05338357501","点番号":"960606","成果状態":"正常"}},{"type":"Feature","geometry":{"type":"Point","coordinates":[140.04809669,35.65720594]},"properties":{"基準点種別":"電子基準点","点名":"千葉花見川","基準点コード":"EL05340308301","点番号":"950225","成果状態":"正常"}},{"type":"Feature","geometry":{"type":"Point","coordinates":[139.63065317,35.66369753]},"properties":{"基準点種別":"電子基準点","点名":"世田谷","基準点コード":"EL05339359001","点番号":"950228","成果状態":"正常"}},{"type":"Feature","geometry":{"type":"Point","coordinates":[138.45682036,35.67369417]},"properties":{"基準点種別":"電子基準点","点名":"韮崎","基準点コード":"EL05338430602","点番号":"970809","成果状態":"正常"}},{"type":"Feature","geometry":{"type":"Point","coordinates":[139.90235867,35.67546392]},"properties":{"基準点種別":"電子基準点","点名":"千葉市川","基準点コード":"EL05339471202","点番号":"93023","成果状態":"正常"}},{"type":"Feature","geometry":{"type":"Point","coordinates":[139.74764672,35.67717531]},"properties":{"基準点種別":"電子基準点","点名":"東京千代田","基準点コード":"EL05339451902","点番号":"171222","成果状態":"正常"}},{"type":"Feature","geometry":{"type":"Point","coordinates":[139.48826628,35.71037128]},"properties":{"基準点種別":"電子基準点","点名":"小金井","基準点コード":"EL05339435902","点番号":"93019","成果状態":"正常"}},{"type":"Feature","geometry":{"type":"Point","coordinates":[140.31515283,35.71745233]},"properties":{"基準点種別":"電子基準点","点名":"富里","基準点コード":"EL05340426501","点番号":"93020","成果状態":"正常"}},{"type":"Feature","geometry":{"type":"Point","coordinates":[139.26813486,35.72375836]},"properties":{"基準点種別":"電子基準点","点名":"秋川","基準点コード":"EL05339426101","点番号":"93063","成果状態":"正常"}},{"type":"Feature","geometry":{"type":"Point","coordinates":[137.98388975,35.726294]},"properties":{"基準点種別":"電子基準点","点名":"駒ヶ根","基準点コード":"EL05337477801","点番号":"960615","成果状態":"正常"}},{"type":"Feature","geometry":{"type":"Point","coordinates":[138.69513369,35.74687592]},"properties":{"基準点種別":"電子基準点","点名":"牧丘","基準点コード":"EL05338459503","点番号":"950264","成果状態":"正常"}},{"type":"Feature","geometry":{"type":"Point","coordinates":[138.95355378,35.75392214]},"properties":{"基準点種別":"電子基準点","点名":"小菅Ａ","基準点コード":"EL05338570601","点番号":"141206","成果状態":"正常"}},{"type":"Feature","geometry":{"type":"Point","coordinates":[139.64454533,35.75802947]},"properties":{"基準点種別":"電子基準点","点名":"練馬Ａ","基準点コード":"EL05339550101","点番号":"081171","成果状態":"正常"}},{"type":"Feature","geometry":{"type":"Point","coordinates":[137.81447831,35.77753539]},"properties":{"基準点種別":"電子基準点","点名":"木曽駒ヶ岳","基準点コード":"EL05337563502","点番号":"031127","成果状態":"正常"}},{"type":"Feature","geometry":{"type":"Point","coordinates":[139.81281667,35.78021456]},"properties":{"基準点種別":"電子基準点","点名":"足立","基準点コード":"EL05339563501","点番号":"93016","成果状態":"正常"}},{"type":"Feature","geometry":{"type":"Point","coordinates":[140.02476025,35.78646614]},"properties":{"基準点種別":"電子基準点","点名":"白井","基準点コード":"EL05340504101","点番号":"93018","成果状態":"正常"}},{"type":"Feature","geometry":{"type":"Point","coordinates":[139.36597342,35.8008025]},"properties":{"基準点種別":"電子基準点","点名":"入間","基準点コード":"EL05339526901","点番号":"960755","成果状態":"正常"}},{"type":"Feature","geometry":{"type":"Point","coordinates":[140.40701411,35.80332922]},"properties":{"基準点種別":"電子基準点","点名":"大栄","基準点コード":"EL05340536202","点番号":"93015","成果状態":"正常"}},{"type":"Feature","geometry":{"type":"Point","coordinates":[138.31639744,35.85597956]},"properties":{"基準点種別":"電子基準点","点名":"小淵沢","基準点コード":"EL05338622502","点番号":"950263","成果状態":"正常"}},{"type":"Feature","geometry":{"type":"Point","coordinates":[140.14549947,35.87364792]},"properties":{"基準点種別":"電子基準点","点名":"利根","基準点コード":"EL05340614102","点番号":"93014","成果状態":"正常"}},{"type":"Feature","geometry":{"type":"Point","coordinates":[138.09570783,35.87841922]},"properties":{"基準点種別":"電子基準点","点名":"高遠","基準点コード":"EL05338605702","点番号":"020987","成果状態":"正常"}},{"type":"Feature","geometry":{"type":"Point","coordinates":[139.18220153,35.88404889]},"properties":{"基準点種別":"電子基準点","点名":"名栗","基準点コード":"EL05339616401","点番号":"960754","成果状態":"正常"}},{"type":"Feature","geometry":{"type":"Point","coordinates":[139.795992,35.89596997]},"properties":{"基準点種別":"電子基準点","点名":"越谷","基準点コード":"EL05339667302","点番号":"950224","成果状態":"正常"}},{"type":"Feature","geometry":{"type":"Point","coordinates":[138.44421692,35.90493331]},"properties":{"基準点種別":"電子基準点","点名":"山梨高根","基準点コード":"EL05338638502","点番号":"020979","成果状態":"正常"}},{"type":"Feature","geometry":{"type":"Point","coordinates":[137.94380806,35.92358142]},"properties":{"基準点種別":"電子基準点","点名":"箕輪","基準点コード":"EL05337770503","点番号":"940047","成果状態":"正常"}},{"type":"Feature","geometry":{"type":"Point","coordinates":[139.46429017,35.92550489]},"properties":{"基準点種別":"電子基準点","点名":"川越","基準点コード":"EL05339731701","点番号":"93011","成果状態":"正常"}},{"type":"Feature","geometry":{"type":"Point","coordinates":[138.92605642,35.92992833]},"properties":{"基準点種別":"電子基準点","点名":"埼玉大滝","基準点コード":"EL05338771403","点番号":"020958","成果状態":"正常"}},{"type":"Feature","geometry":{"type":"Point","coordinates":[139.65186556,35.93747094]},"properties":{"基準点種別":"電子基準点","点名":"大宮","基準点コード":"EL05339752201","点番号":"93013","成果状態":"正常"}},{"type":"Feature","geometry":{"type":"Point","coordinates":[139.99272897,35.9402915]},"properties":{"基準点種別":"電子基準点","点名":"守谷","基準点コード":"EL05339772902","点番号":"93012","成果状態":"正常"}},{"type":"Feature","geometry":{"type":"Point","coordinates":[140.40295933,35.97040836]},"properties":{"基準点種別":"電子基準点","点名":"桜川","基準点コード":"EL05340736201","点番号":"93010","成果状態":"正常"}},{"type":"Feature","geometry":{"type":"Point","coordinates":[138.58302917,35.97414781]},"properties":{"基準点種別":"電子基準点","点名":"川上","基準点コード":"EL05338746601","点番号":"960613","成果状態":"正常"}},{"type":"Feature","geometry":{"type":"Point","coordinates":[139.07568911,35.98689147]},"properties":{"基準点種別":"電子基準点","点名":"秩父","基準点コード":"EL05339708602","点番号":"950223","成果状態":"正常"}},{"type":"Feature","geometry":{"type":"Point","coordinates":[139.26933247,36.00373575]},"properties":{"基準点種別":"電子基準点","点名":"都幾川","基準点コード":"EL05439020102","点番号":"960753","成果状態":"正常"}},{"type":"Feature","geometry":{"type":"Point","coordinates":[139.79842992,36.01093058]},"properties":{"基準点種別":"電子基準点","点名":"庄和Ａ","基準点コード":"EL05439061305","点番号":"191231","成果状態":"正常"}},{"type":"Feature","geometry":{"type":"Point","coordinates":[138.21448583,36.02616364]},"properties":{"基準点種別":"電子基準点","点名":"茅野","基準点コード":"EL05438013703","点番号":"960612","成果状態":"正常"}},{"type":"Feature","geometry":{"type":"Point","coordinates":[140.20245161,36.03133944]},"properties":{"基準点種別":"電子基準点","点名":"阿見","基準点コード":"EL05440013601","点番号":"960584","成果状態":"正常"}},{"type":"Feature","geometry":{"type":"Point","coordinates":[139.63672989,36.08722767]},"properties":{"基準点種別":"電子基準点","点名":"久喜","基準点コード":"EL05439150002","点番号":"93007","成果状態":"正常"}},{"type":"Feature","geometry":{"type":"Point","coordinates":[140.34315956,36.09693606]},"properties":{"基準点種別":"電子基準点","点名":"出島","基準点コード":"EL05440121702","点番号":"93006","成果状態":"正常"}},{"type":"Feature","geometry":{"type":"Point","coordinates":[140.08631519,36.10363517]},"properties":{"基準点種別":"電子基準点","点名":"つくば３","基準点コード":"EL05440102605","点番号":"960627","成果状態":"正常"}},{"type":"Feature","geometry":{"type":"Point","coordinates":[140.08719836,36.10611439]},"properties":{"基準点種別":"電子基準点","点名":"つくば１","基準点コード":"EL05440102601","点番号":"92110","成果状態":"正常"}},{"type":"Feature","geometry":{"type":"Point","coordinates":[139.93150617,36.11481369]},"properties":{"基準点種別":"電子基準点","点名":"石下","基準点コード":"EL05439173401","点番号":"960583","成果状態":"正常"}},{"type":"Feature","geometry":{"type":"Point","coordinates":[139.34517522,36.12095161]},"properties":{"基準点種別":"電子基準点","点名":"江南","基準点コード":"EL05439124702","点番号":"93005","成果状態":"正常"}},{"type":"Feature","geometry":{"type":"Point","coordinates":[137.98301303,36.12111]},"properties":{"基準点種別":"電子基準点","点名":"塩尻","基準点コード":"EL05437174802","点番号":"950273","成果状態":"正常"}},{"type":"Feature","geometry":{"type":"Point","coordinates":[138.46097583,36.13064017]},"properties":{"基準点種別":"電子基準点","点名":"八千穂","基準点コード":"EL05438135602","点番号":"950272","成果状態":"正常"}},{"type":"Feature","geometry":{"type":"Point","coordinates":[138.91242269,36.14275383]},"properties":{"基準点種別":"電子基準点","点名":"万場","基準点コード":"EL05438177202","点番号":"960593","成果状態":"正常"}},{"type":"Feature","geometry":{"type":"Point","coordinates":[138.70298806,36.20026647]},"properties":{"基準点種別":"電子基準点","点名":"南牧","基準点コード":"EL05438254601","点番号":"020957","成果状態":"正常"}},{"type":"Feature","geometry":{"type":"Point","coordinates":[138.05917536,36.20082061]},"properties":{"基準点種別":"電子基準点","点名":"Ｒ松本","基準点コード":"EL05438204401","点番号":"00R019","成果状態":"正常"}},{"type":"Feature","geometry":{"type":"Point","coordinates":[139.81053381,36.20367208]},"properties":{"基準点種別":"電子基準点","点名":"三和","基準点コード":"EL05439264402","点番号":"93003","成果状態":"正常"}},{"type":"Feature","geometry":{"type":"Point","coordinates":[138.21648806,36.208468]},"properties":{"基準点種別":"電子基準点","点名":"和田","基準点コード":"EL05438215703","点番号":"950271","成果状態":"正常"}},{"type":"Feature","geometry":{"type":"Point","coordinates":[140.21895192,36.20883258]},"properties":{"基準点種別":"電子基準点","点名":"石岡","基準点コード":"EL05440215702","点番号":"132009","成果状態":"正常"}},{"type":"Feature","geometry":{"type":"Point","coordinates":[137.87175172,36.22836969]},"properties":{"基準点種別":"電子基準点","点名":"梓川","基準点コード":"EL05437267902","点番号":"960609","成果状態":"正常"}},{"type":"Feature","geometry":{"type":"Point","coordinates":[139.06664617,36.23467089]},"properties":{"基準点種別":"電子基準点","点名":"藤岡","基準点コード":"EL05439208501","点番号":"960592","成果状態":"正常"}},{"type":"Feature","geometry":{"type":"Point","coordinates":[137.98455222,36.23902997]},"properties":{"基準点種別":"電子基準点","点名":"松本","基準点コード":"EL05437278802","点番号":"960608","成果状態":"正常"}},{"type":"Feature","geometry":{"type":"Point","coordinates":[138.86540972,36.2590325]},"properties":{"基準点種別":"電子基準点","点名":"富岡","基準点コード":"EL05438361902","点番号":"940045","成果状態":"正常"}},{"type":"Feature","geometry":{"type":"Point","coordinates":[138.36604642,36.26098806]},"properties":{"基準点種別":"電子基準点","点名":"望月","基準点コード":"EL05438321901","点番号":"020985","成果状態":"正常"}},{"type":"Feature","geometry":{"type":"Point","coordinates":[140.17427367,36.26326867]},"properties":{"基準点種別":"電子基準点","点名":"八郷","基準点コード":"EL05440311302","点番号":"93002","成果状態":"正常"}},{"type":"Feature","geometry":{"type":"Point","coordinates":[139.25464478,36.26769172]},"properties":{"基準点種別":"電子基準点","点名":"境","基準点コード":"EL05439322002","点番号":"020956","成果状態":"正常"}},{"type":"Feature","geometry":{"type":"Point","coordinates":[138.49928411,36.28471386]},"properties":{"基準点種別":"電子基準点","点名":"佐久","基準点コード":"EL05438334901","点番号":"960610","成果状態":"正常"}},{"type":"Feature","geometry":{"type":"Point","coordinates":[139.54230742,36.29516294]},"properties":{"基準点種別":"電子基準点","点名":"佐野","基準点コード":"EL05439345302","点番号":"93001","成果状態":"正常"}},{"type":"Feature","geometry":{"type":"Point","coordinates":[139.98777467,36.30070503]},"properties":{"基準点種別":"電子基準点","点名":"下館","基準点コード":"EL05439376901","点番号":"960582","成果状態":"正常"}},{"type":"Feature","geometry":{"type":"Point","coordinates":[137.90281769,36.32237197]},"properties":{"基準点種別":"電子基準点","点名":"豊科","基準点コード":"EL05437378202","点番号":"950270","成果状態":"正常"}},{"type":"Feature","geometry":{"type":"Point","coordinates":[140.47634506,36.34436847]},"properties":{"基準点種別":"電子基準点","点名":"水戸","基準点コード":"EL05440431802","点番号":"950216","成果状態":"正常"}},{"type":"Feature","geometry":{"type":"Point","coordinates":[138.63780044,36.34601411]},"properties":{"基準点種別":"電子基準点","点名":"軽井沢","基準点コード":"EL05438451101","点番号":"950269","成果状態":"正常"}},{"type":"Feature","geometry":{"type":"Point","coordinates":[140.07795617,36.36491181]},"properties":{"基準点種別":"電子基準点","点名":"岩瀬","基準点コード":"EL05440403602","点番号":"950215","成果状態":"正常"}},{"type":"Feature","geometry":{"type":"Point","coordinates":[138.47794742,36.37995014]},"properties":{"基準点種別":"電子基準点","点名":"Ｓ浅間山１","基準点コード":"EL05438435801","点番号":"03S046","成果状態":"正常"}},{"type":"Feature","geometry":{"type":"Point","coordinates":[138.32252689,36.38617703]},"properties":{"基準点種別":"電子基準点","点名":"東部","基準点コード":"EL05438426502","点番号":"950268","成果状態":"正常"}},{"type":"Feature","geometry":{"type":"Point","coordinates":[139.01671583,36.39534697]},"properties":{"基準点種別":"電子基準点","点名":"群馬","基準点コード":"EL05439407101","点番号":"020955","成果状態":"正常"}},{"type":"Feature","geometry":{"type":"Point","coordinates":[139.72642969,36.40184767]},"properties":{"基準点種別":"電子基準点","点名":"栃木","基準点コード":"EL05439458801","点番号":"940043","成果状態":"正常"}},{"type":"Feature","geometry":{"type":"Point","coordinates":[139.90251636,36.45658047]},"properties":{"基準点種別":"電子基準点","点名":"上三川","基準点コード":"EL05439574202","点番号":"020951","成果状態":"正常"}},{"type":"Feature","geometry":{"type":"Point","coordinates":[138.05243156,36.45913483]},"properties":{"基準点種別":"電子基準点","点名":"Ｒ麻績","基準点コード":"EL05438505401","点番号":"99R006","成果状態":"正常"}},{"type":"Feature","geometry":{"type":"Point","coordinates":[140.38570394,36.47584939]},"properties":{"基準点種別":"電子基準点","点名":"常北","基準点コード":"EL05440537002","点番号":"020947","成果状態":"正常"}},{"type":"Feature","geometry":{"type":"Point","coordinates":[137.85112447,36.49976706]},"properties":{"基準点種別":"電子基準点","点名":"大町","基準点コード":"EL05437569802","点番号":"940046","成果状態":"正常"}},{"type":"Feature","geometry":{"type":"Point","coordinates":[138.55271792,36.50799592]},"properties":{"基準点種別":"電子基準点","点名":"嬬恋","基準点コード":"EL05438640401","点番号":"950221","成果状態":"正常"}},{"type":"Feature","geometry":{"type":"Point","coordinates":[138.1209495,36.5236045]},"properties":{"基準点種別":"電子基準点","点名":"更埴","基準点コード":"EL05438602901","点番号":"020984","成果状態":"正常"}},{"type":"Feature","geometry":{"type":"Point","coordinates":[139.75279861,36.53763303]},"properties":{"基準点種別":"電子基準点","点名":"鹿沼","基準点コード":"EL05439664001","点番号":"020950","成果状態":"正常"}},{"type":"Feature","geometry":{"type":"Point","coordinates":[139.05674075,36.53925933]},"properties":{"基準点種別":"電子基準点","点名":"赤城","基準点コード":"EL05439604401","点番号":"960752","成果状態":"正常"}},{"type":"Feature","geometry":{"type":"Point","coordinates":[140.61185144,36.53992656]},"properties":{"基準点種別":"電子基準点","点名":"日立","基準点コード":"EL05440644802","点番号":"940042","成果状態":"正常"}},{"type":"Feature","geometry":{"type":"Point","coordinates":[140.1793195,36.54221528]},"properties":{"基準点種別":"電子基準点","点名":"茂木","基準点コード":"EL05440615402","点番号":"960590","成果状態":"正常"}},{"type":"Feature","geometry":{"type":"Point","coordinates":[138.84789675,36.59137736]},"properties":{"基準点種別":"電子基準点","点名":"中之条","基準点コード":"EL05438760702","点番号":"020954","成果状態":"正常"}}]}